EUTELSAT 7A             
1 28187U 04008A   25357.73354844  .00000121  00000+0  00000+0 0  9990
2 28187   5.3840  74.1266 0000957 209.4746 293.7763  1.00271405 79594
EUTELSAT 174A           
1 28924U 05052A   25357.65297178  .00000028  00000+0  00000+0 0  9992
2 28924   3.7731  78.7266 0005919 196.1163 226.6599  1.00270128 50572
EUTELSAT HOTBIRD 13B    
1 29270U 06032A   25357.76778198  .00000176  00000+0  00000+0 0  9998
2 29270   1.2074  84.2807 0003561 184.8146 132.9855  1.00275151 45545
EUTELSAT HOTBIRD 13C    
1 33459U 08065A   25357.75122854 -.00000263  00000+0  00000+0 0  9999
2 33459   2.4981  81.3024 0003510 186.3793  44.9818  1.00270033 45586
EUTELSAT 36B            
1 36101U 09065A   25357.77116199  .00000133  00000+0  00000+0 0  9999
2 36101   0.0559  42.6767 0005706 229.2203 148.7535  1.00271435 58944
EUTELSAT KA-SAT 9A      
1 37258U 10069A   25357.54897111  .00000082  00000+0  00000+0 0  9997
2 37258   0.0502 337.6886 0001914 205.3499 115.9267  1.00267761 42245
EUTELSAT 7 WEST A       
1 37816U 11051A   25357.75972192 -.00000039  00000+0  00000+0 0  9998
2 37816   0.0631 347.9589 0005184 241.8517 128.9317  1.00271266 52113
EUTELSAT 16A            
1 37836U 11057A   25357.76431529  .00000125  00000+0  00000+0 0  9996
2 37836   0.0570 345.8246 0005851 288.5803 109.2843  1.00270619  5565
